[{"OBJECT_NAME":"STARK","OBJECT_ID":"2025-185C","EPOCH":"2026-03-09T19:23:11.035968","MEAN_MOTION":14.78690029,"ECCENTRICITY":0.00098781,"INCLINATION":97.9576,"RA_OF_ASC_NODE":153.2747,"ARG_OF_PERICENTER":62.8418,"MEAN_ANOMALY":297.3799,"EPHEMERIS_TYPE":0,"CLASSIFICATION_TYPE":"U","NORAD_CAT_ID":65299,"ELEMENT_SET_NO":999,"REV_AT_EPOCH":2915,"BSTAR":0.0003503119,"MEAN_MOTION_DOT":2.519e-5,"MEAN_MOTION_DDOT":0},{"OBJECT_NAME":"CZ-6A DEB","OBJECT_ID":"2022-151PQ","EPOCH":"2026-03-09T17:53:54.005280","MEAN_MOTION":14.81873241,"ECCENTRICITY":0.00641861,"INCLINATION":98.6344,"RA_OF_ASC_NODE":140.6014,"ARG_OF_PERICENTER":200.392,"MEAN_ANOMALY":159.4727,"EPHEMERIS_TYPE":0,"CLASSIFICATION_TYPE":"U","NORAD_CAT_ID":54638,"ELEMENT_SET_NO":999,"REV_AT_EPOCH":17589,"BSTAR":0.0034103057,"MEAN_MOTION_DOT":0.00027994,"MEAN_MOTION_DDOT":0}]
